{
  "norad_id": 45071,
  "name": "STARLINK-1167",
  "history": [
    {
      "epoch": "2026-03-28T15:18:35.514720Z",
      "apogee_km": 475.3021018281497,
      "perigee_km": 472.1496967454459,
      "latitude_deg": -5.034355136349706e-06,
      "longitude_deg": 114.1719286029802,
      "height_km": 473.4214378124793,
      "semi_major_axis_km": 6851.862899286798,
      "eccentricity": 0.00023004,
      "inclination_deg": 53.1586,
      "raan_deg": 169.8754,
      "arg_perigee_deg": 40.2897,
      "mean_anomaly_deg": 319.8274,
      "mean_motion_rev_day": 15.30698883
    },
    {
      "epoch": "2026-03-29T08:32:48.533856Z",
      "apogee_km": 475.15108935916396,
      "perigee_km": 471.8248994893702,
      "latitude_deg": -5.591145626089105e-07,
      "longitude_deg": -148.42941079543988,
      "height_km": 473.12494915691104,
      "semi_major_axis_km": 6851.624994424266,
      "eccentricity": 0.00024273,
      "inclination_deg": 53.1591,
      "raan_deg": 166.5362,
      "arg_perigee_deg": 40.7006,
      "mean_anomaly_deg": 319.4176,
      "mean_motion_rev_day": 15.30778608
    }
  ]
}